{"type": "FeatureCollection", "features": [ {"type": "Feature", "properties": {"norad_id": 65943, "name": "E-KAGAKU-1", "group": "stations", "lat": -12.114648114566327, "lon": -8.694898713514561, "alt_km": 391.75059687665, "timestamp": "2025-12-08T10:52:01.736826+00:00", "meta": {"OBJECT_NAME": "E-KAGAKU-1", "OBJECT_ID": "1998-067XQ", "EPOCH": "2025-12-07T18:38:39.521184", "MEAN_MOTION": 15.58562644, "ECCENTRICITY": 0.00029586, "INCLINATION": 51.6295, "RA_OF_ASC_NODE": 164.9078, "ARG_OF_PERICENTER": 173.7443, "MEAN_ANOMALY": 186.3587, "EPHEMERIS_TYPE": 0, "CLASSIFICATION_TYPE": "U", "NORAD_CAT_ID": 65943, "ELEMENT_SET_NO": 999, "REV_AT_EPOCH": 908, "BSTAR": 0.0011280115, "MEAN_MOTION_DOT": 0.00088516, "MEAN_MOTION_DDOT": 0}, "tle": {"line1": "1 65943U 98067XQ  25341.77684631  .00088516  00000+0  11280-2 0  9995", "line2": "2 65943  51.6295 164.9078 0002958 173.7443 186.3587 15.58562644  9086"}}, "geometry": {"type": "Point", "coordinates": [-8.694898713514561, -12.114648114566327]}}, {"type": "Feature", "properties": {"norad_id": 66052, "name": "HRC MONOBLOCK CAMERA", "group": "stations", "lat": -50.217212138291394, "lon": 54.971810416329, "alt_km": 410.56320082810726, "timestamp": "2025-12-08T10:52:01.736837+00:00", "meta": {"OBJECT_NAME": "HRC MONOBLOCK CAMERA", "OBJECT_ID": "1998-067XR", "EPOCH": "2025-12-07T18:19:18.655104", "MEAN_MOTION": 15.53649665, "ECCENTRICITY": 0.000398, "INCLINATION": 51.6286, "RA_OF_ASC_NODE": 166.3103, "ARG_OF_PERICENTER": 163.9442, "MEAN_ANOMALY": 196.1676, "EPHEMERIS_TYPE": 0, "CLASSIFICATION_TYPE": "U", "NORAD_CAT_ID": 66052, "ELEMENT_SET_NO": 999, "REV_AT_EPOCH": 806, "BSTAR": 0.00070532392, "MEAN_MOTION_DOT": 0.0004568, "MEAN_MOTION_DDOT": 0}, "tle": {"line1": "1 66052U 98067XR  25341.76341036  .00045680  00000+0  70532-3 0  9996", "line2": "2 66052  51.6286 166.3103 0003980 163.9442 196.1676 15.53649665  8068"}}, "geometry": {"type": "Point", "coordinates": [54.971810416329, -50.217212138291394]}}, {"type": "Feature", "properties": {"norad_id": 66174, "name": "HTV-X1", "group": "stations", "lat": -30.30833871728472, "lon": 11.293578474942338, "alt_km": 419.7916212033979, "timestamp": "2025-12-08T10:52:01.736847+00:00", "meta": {"OBJECT_NAME": "HTV-X1", "OBJECT_ID": "2025-241A", "EPOCH": "2025-12-07T21:32:16.385568", "MEAN_MOTION": 15.49404055, "ECCENTRICITY": 0.0003425, "INCLINATION": 51.6302, "RA_OF_ASC_NODE": 166.4547, "ARG_OF_PERICENTER": 217.7386, "MEAN_ANOMALY": 142.3363, "EPHEMERIS_TYPE": 0, "CLASSIFICATION_TYPE": "U", "NORAD_CAT_ID": 66174, "ELEMENT_SET_NO": 999, "REV_AT_EPOCH": 51, "BSTAR": 0.00022339025, "MEAN_MOTION_DOT": 0.00012051, "MEAN_MOTION_DDOT": 0}, "tle": {"line1": "1 66174U 25241A   25341.89741187  .00012051  00000+0  22339-3 0  9998", "line2": "2 66174  51.6302 166.4547 0003425 217.7386 142.3363 15.49404055   519"}}, "geometry": {"type": "Point", "coordinates": [11.293578474942338, -30.30833871728472]}}, {"type": "Feature", "properties": {"norad_id": 66515, "name": "SZ-21 MODULE", "group": "stations", "lat": 17.15868395143217, "lon": 62.64860056290358, "alt_km": 382.080230462333, "timestamp": "2025-12-08T10:52:01.736857+00:00", "meta": {"OBJECT_NAME": "SZ-21 MODULE", "OBJECT_ID": "2025-246C", "EPOCH": "2025-12-07T20:56:43.117728", "MEAN_MOTION": 15.62136924, "ECCENTRICITY": 0.00062043, "INCLINATION": 41.4776, "RA_OF_ASC_NODE": 45.7288, "ARG_OF_PERICENTER": 233.3043, "MEAN_ANOMALY": 126.7226, "EPHEMERIS_TYPE": 0, "CLASSIFICATION_TYPE": "U", "NORAD_CAT_ID": 66515, "ELEMENT_SET_NO": 999, "REV_AT_EPOCH": 368, "BSTAR": 0.00033745404, "MEAN_MOTION_DOT": 0.00030277, "MEAN_MOTION_DDOT": 0}, "tle": {"line1": "1 66515U 25246C   25341.87272127  .00030277  00000+0  33745-3 0  9996", "line2": "2 66515  41.4776  45.7288 0006204 233.3043 126.7226 15.62136924  3680"}}, "geometry": {"type": "Point", "coordinates": [62.64860056290358, 17.15868395143217]}}, {"type": "Feature", "properties": {"norad_id": 66645, "name": "SHENZHOU-22", "group": "stations", "lat": 7.153685227544575, "lon": -145.44342694434096, "alt_km": 395.7110538345487, "timestamp": "2025-12-08T10:52:01.736867+00:00", "meta": {"OBJECT_NAME": "SHENZHOU-22", "OBJECT_ID": "2025-272A", "EPOCH": "2025-12-07T23:22:56.643744", "MEAN_MOTION": 15.58863749, "ECCENTRICITY": 0.00092535, "INCLINATION": 41.4683, "RA_OF_ASC_NODE": 45.6321, "ARG_OF_PERICENTER": 352.4121, "MEAN_ANOMALY": 7.6575, "EPHEMERIS_TYPE": 0, "CLASSIFICATION_TYPE": "U", "NORAD_CAT_ID": 66645, "ELEMENT_SET_NO": 999, "REV_AT_EPOCH": 26300, "BSTAR": 0.00029193568, "MEAN_MOTION_DOT": 0.00023028, "MEAN_MOTION_DDOT": 0}, "tle": {"line1": "1 66645U 25272A   25341.97426671  .00023028  00000+0  29194-3 0  9994", "line2": "2 66645  41.4683  45.6321 0009253 352.4121   7.6575 15.58863749263000"}}, "geometry": {"type": "Point", "coordinates": [-145.44342694434096, 7.153685227544575]}}, {"type": "Feature", "properties": {"norad_id": 66664, "name": "SOYUZ-MS 28", "group": "stations", "lat": -30.308340556516967, "lon": 11.293580678591114, "alt_km": 419.79162132055626, "timestamp": "2025-12-08T10:52:01.736888+00:00", "meta": {"OBJECT_NAME": "SOYUZ-MS 28", "OBJECT_ID": "2025-275A", "EPOCH": "2025-12-07T21:32:16.385568", "MEAN_MOTION": 15.49404055, "ECCENTRICITY": 0.0003425, "INCLINATION": 51.6302, "RA_OF_ASC_NODE": 166.4547, "ARG_OF_PERICENTER": 217.7386, "MEAN_ANOMALY": 142.3363, "EPHEMERIS_TYPE": 0, "CLASSIFICATION_TYPE": "U", "NORAD_CAT_ID": 66664, "ELEMENT_SET_NO": 999, "REV_AT_EPOCH": 128, "BSTAR": 0.00022339025, "MEAN_MOTION_DOT": 0.00012051, "MEAN_MOTION_DDOT": 0}, "tle": {"line1": "1 66664U 25275A   25341.89741187  .00012051  00000+0  22339-3 0  9999", "line2": "2 66664  51.6302 166.4547 0003425 217.7386 142.3363 15.49404055  1288"}}, "geometry": {"type": "Point", "coordinates": [11.293580678591114, -30.308340556516967]}}, {"type": "Feature", "properties": {"norad_id": 66906, "name": "1998-067XS", "group": "stations", "lat": -40.19913543664806, "lon": 25.703247764191765, "alt_km": 418.50085879678227, "timestamp": "2025-12-08T10:52:01.736900+00:00", "meta": {"OBJECT_NAME": "1998-067XS", "OBJECT_ID": "1998-067XS", "EPOCH": "2025-12-07T18:23:05.277120", "MEAN_MOTION": 15.50202047, "ECCENTRICITY": 0.00041027, "INCLINATION": 51.6298, "RA_OF_ASC_NODE": 167.0779, "ARG_OF_PERICENTER": 180.8323, "MEAN_ANOMALY": 179.266, "EPHEMERIS_TYPE": 0, "CLASSIFICATION_TYPE": "U", "NORAD_CAT_ID": 66906, "ELEMENT_SET_NO": 999, "REV_AT_EPOCH": 84, "BSTAR": 0.00058960248, "MEAN_MOTION_DOT": 0.00033584, "MEAN_MOTION_DDOT": 0}, "tle": {"line1": "1 66906U 98067XS  25341.76603330  .00033584  00000+0  58960-3 0  9993", "line2": "2 66906  51.6298 167.0779 0004102 180.8323 179.2660 15.50202047   848"}}, "geometry": {"type": "Point", "coordinates": [25.703247764191765, -40.19913543664806]}}, {"type": "Feature", "properties": {"norad_id": 66907, "name": "1998-067XT", "group": "stations", "lat": -42.94695569292539, "lon": 31.177772550533483, "alt_km": 416.2969704762236, "timestamp": "2025-12-08T10:52:01.736911+00:00", "meta": {"OBJECT_NAME": "1998-067XT", "OBJECT_ID": "1998-067XT", "EPOCH": "2025-12-07T21:27:41.929920", "MEAN_MOTION": 15.50640627, "ECCENTRICITY": 0.00050838, "INCLINATION": 51.63, "RA_OF_ASC_NODE": 166.4336, "ARG_OF_PERICENTER": 199.2143, "MEAN_ANOMALY": 160.8655, "EPHEMERIS_TYPE": 0, "CLASSIFICATION_TYPE": "U", "NORAD_CAT_ID": 66907, "ELEMENT_SET_NO": 999, "REV_AT_EPOCH": 86, "BSTAR": 0.0010871959, "MEAN_MOTION_DOT": 0.00063549, "MEAN_MOTION_DDOT": 0}, "tle": {"line1": "1 66907U 98067XT  25341.89423530  .00063549  00000+0  10872-2 0  9993", "line2": "2 66907  51.6300 166.4336 0005083 199.2143 160.8655 15.50640627   860"}}, "geometry": {"type": "Point", "coordinates": [31.177772550533483, -42.94695569292539]}}, {"type": "Feature", "properties": {"norad_id": 66908, "name": "1998-067XU", "group": "stations", "lat": -43.47152996087696, "lon": 32.348715608703706, "alt_km": 416.1221724183788, "timestamp": "2025-12-08T10:52:01.736921+00:00", "meta": {"OBJECT_NAME": "1998-067XU", "OBJECT_ID": "1998-067XU", "EPOCH": "2025-12-07T19:54:39.986208", "MEAN_MOTION": 15.50677163, "ECCENTRICITY": 0.00052497, "INCLINATION": 51.6294, "RA_OF_ASC_NODE": 166.7524, "ARG_OF_PERICENTER": 198.4563, "MEAN_ANOMALY": 161.6236, "EPHEMERIS_TYPE": 0, "CLASSIFICATION_TYPE": "U", "NORAD_CAT_ID": 66908, "ELEMENT_SET_NO": 999, "REV_AT_EPOCH": 85, "BSTAR": 0.0012583992, "MEAN_MOTION_DOT": 0.00073824, "MEAN_MOTION_DDOT": 0}, "tle": {"line1": "1 66908U 98067XU  25341.82962947  .00073824  00000+0  12584-2 0  9996", "line2": "2 66908  51.6294 166.7524 0005249 198.4563 161.6236 15.50677163   854"}}, "geometry": {"type": "Point", "coordinates": [32.348715608703706, -43.47152996087696]}}, {"type": "Feature", "properties": {"norad_id": 66909, "name": "SILVERSAT", "group": "stations", "lat": -43.76332976159983, "lon": 33.01986589755508, "alt_km": 415.9273763753772, "timestamp": "2025-12-08T10:52:01.736932+00:00", "meta": {"OBJECT_NAME": "SILVERSAT", "OBJECT_ID": "1998-067XV", "EPOCH": "2025-12-07T19:54:33.887232", "MEAN_MOTION": 15.50747382, "ECCENTRICITY": 0.00050921, "INCLINATION": 51.6296, "RA_OF_ASC_NODE": 166.752, "ARG_OF_PERICENTER": 199.8533, "MEAN_ANOMALY": 160.2258, "EPHEMERIS_TYPE": 0, "CLASSIFICATION_TYPE": "U", "NORAD_CAT_ID": 66909, "ELEMENT_SET_NO": 999, "REV_AT_EPOCH": 85, "BSTAR": 0.0014852493, "MEAN_MOTION_DOT": 0.00087585, "MEAN_MOTION_DDOT": 0}, "tle": {"line1": "1 66909U 98067XV  25341.82955888  .00087585  00000+0  14852-2 0  9992", "line2": "2 66909  51.6296 166.7520 0005092 199.8533 160.2258 15.50747382   851"}}, "geometry": {"type": "Point", "coordinates": [33.01986589755508, -43.76332976159983]}}]}